GLOBALSTAR M035 [-]     
1 25851U 99037A   23242.80957870  .00000000  00000+0  23898-2 0  9997
2 25851  51.9950  78.7236 0014078   1.9294  10.9367 11.04526250 23737
GLOBALSTAR M032 [-]     
1 25852U 99037B   23242.44258237 -.00000144  00000+0 -24815-2 0  9990
2 25852  51.9968 310.0603 0008265 139.3658 220.7760 11.19045904 61264
GLOBALSTAR M051 [-]     
1 25853U 99037C   23242.53110076 -.00000074  00000+0 -54939-4 0  9993
2 25853  51.9774 184.9728 0001520 106.5503 253.5475 11.42190321 57350
GLOBALSTAR M030 [-]     
1 25854U 99037D   23242.71289854 -.00000070  00000+0  11253-3 0  9991
2 25854  51.9899  32.3737 0003612 313.8070  46.2447 11.55089688 74184
GLOBALSTAR M048 [-]     
1 25872U 99041A   23242.85731457 -.00000045  00000+0  68078-3 0  9991
2 25872  51.9359  93.8351 0013630 124.9270 248.3595 11.33839363 50534
GLOBALSTAR M026 [-]     
1 25873U 99041B   23242.61572235 -.00000116  00000+0 -19079-2 0  9999
2 25873  51.9974 204.0420 0001613 268.7930 263.8975 11.06821904 75789
GLOBALSTAR M043 [-]     
1 25874U 99041C   23242.54640247 -.00000082  00000+0 -42033-3 0  9990
2 25874  51.9385 176.0501 0012978 273.9015 257.3347 11.25673601 48929
GLOBALSTAR M028 [-]     
1 25875U 99041D   23242.56471869 -.00000094  00000+0  41175-4 0  9994
2 25875  51.9648 350.9215 0064136  85.8965 274.9223 12.50539326108024
